STARLINK-35678          
1 66971U 25288N   25364.83336806 -.00178064  00000+0 -30897-2 0  9997
2 66971  43.0010  57.9633 0001157 267.2645  18.3451 15.50662561  4731
STARLINK-34846          
1 66972U 25288P   25364.83336806 -.00170045  00000+0 -29479-2 0  9993
2 66972  43.0010  57.9583 0001309 264.2464  23.2816 15.50656950  4736
STARLINK-35778          
1 66973U 25288Q   25364.83336806 -.02139318  00000+0 -42231-1 0  9994
2 66973  43.0009  57.9537 0001393 268.1844  21.0278 15.49865150  4732
STARLINK-35780          
1 66974U 25288R   25364.83336806 -.00074505  00000+0 -12743-2 0  9995
2 66974  43.0010  57.9490 0001207 274.8514  16.5142 15.50623684  4730
STARLINK-35777          
1 66975U 25288S   25364.83336806 -.00076933  00000+0 -13166-2 0  9993
2 66975  43.0010  57.9383 0001638 278.3448  16.8594 15.50618715  4738
STARLINK-35772          
1 66976U 25288T   25364.65526322  .00111464  00000+0  26362-2 0  9997
2 66976  43.0007  60.8011 0001571 264.4951  95.5727 15.40706149  4647
STARLINK-35770          
1 66977U 25288U   25364.83336806 -.00214977  00000+0 -37425-2 0  9991
2 66977  43.0011  57.9345 0001594 269.8433  27.2600 15.50709042  4737
STARLINK-35787          
1 66978U 25288V   25364.83336806 -.02085361  00000+0 -46125-1 0  9993
2 66978  43.0010  57.9359 0001007 282.9439  13.4053 15.46558094  4736
STARLINK-36107          
1 66979U 25288W   25364.83336806 -.00169307  00000+0 -29348-2 0  9994
2 66979  43.0011  57.9152 0001546 276.4301  28.3543 15.50655771  4737
STARLINK-36086          
1 66980U 25288X   25364.83336806 -.00179280  00000+0 -31111-2 0  9998
2 66980  43.0011  57.9100 0001505 274.6836  32.0141 15.50663562  4733
STARLINK-36142          
1 66981U 25288Y   25364.83336806 -.00166711  00000+0 -28888-2 0  9991
2 66981  43.0011  57.9051 0001607 274.6622  33.9526 15.50655553  4733
STARLINK-36113          
1 66982U 25288Z   25364.64898485  .00133756  00000+0  22440-2 0  9996
2 66982  43.0007  58.9783 0001106 256.4562 103.6175 15.50616509  4662
