CCSDS_OMM_VERS = 2.0
CREATION_DATE  = 
ORIGINATOR     = 

OBJECT_NAME    = STARLINK-35678
OBJECT_ID      = 2025-288N
CENTER_NAME    = EARTH
REF_FRAME      = TEME
TIME_SYSTEM    = UTC
MEAN_ELEMENT_THEORY = SGP/SGP4

EPOCH          = 2025-12-30T20:00:03.000384
MEAN_MOTION    = 15.50662561
ECCENTRICITY   = .0001157
INCLINATION    = 43.0010
RA_OF_ASC_NODE = 57.9633
ARG_OF_PERICENTER = 267.2645
MEAN_ANOMALY   = 18.3451

EPHEMERIS_TYPE = 0
CLASSIFICATION_TYPE = U
NORAD_CAT_ID   = 66971
ELEMENT_SET_NO = 999
REV_AT_EPOCH   = 473
BSTAR          = -.30897E-2
MEAN_MOTION_DOT = -.178064E-2
MEAN_MOTION_DDOT = 0

CCSDS_OMM_VERS = 2.0
CREATION_DATE  = 
ORIGINATOR     = 

OBJECT_NAME    = STARLINK-34846
OBJECT_ID      = 2025-288P
CENTER_NAME    = EARTH
REF_FRAME      = TEME
TIME_SYSTEM    = UTC
MEAN_ELEMENT_THEORY = SGP/SGP4

EPOCH          = 2025-12-30T20:00:03.000384
MEAN_MOTION    = 15.50656950
ECCENTRICITY   = .0001309
INCLINATION    = 43.0010
RA_OF_ASC_NODE = 57.9583
ARG_OF_PERICENTER = 264.2464
MEAN_ANOMALY   = 23.2816

EPHEMERIS_TYPE = 0
CLASSIFICATION_TYPE = U
NORAD_CAT_ID   = 66972
ELEMENT_SET_NO = 999
REV_AT_EPOCH   = 473
BSTAR          = -.29479E-2
MEAN_MOTION_DOT = -.170045E-2
MEAN_MOTION_DDOT = 0

CCSDS_OMM_VERS = 2.0
CREATION_DATE  = 
ORIGINATOR     = 

OBJECT_NAME    = STARLINK-35778
OBJECT_ID      = 2025-288Q
CENTER_NAME    = EARTH
REF_FRAME      = TEME
TIME_SYSTEM    = UTC
MEAN_ELEMENT_THEORY = SGP/SGP4

EPOCH          = 2025-12-30T20:00:03.000384
MEAN_MOTION    = 15.49865150
ECCENTRICITY   = .0001393
INCLINATION    = 43.0009
RA_OF_ASC_NODE = 57.9537
ARG_OF_PERICENTER = 268.1844
MEAN_ANOMALY   = 21.0278

EPHEMERIS_TYPE = 0
CLASSIFICATION_TYPE = U
NORAD_CAT_ID   = 66973
ELEMENT_SET_NO = 999
REV_AT_EPOCH   = 473
BSTAR          = -.42231E-1
MEAN_MOTION_DOT = -.2139318E-1
MEAN_MOTION_DDOT = 0

CCSDS_OMM_VERS = 2.0
CREATION_DATE  = 
ORIGINATOR     = 

OBJECT_NAME    = STARLINK-35780
OBJECT_ID      = 2025-288R
CENTER_NAME    = EARTH
REF_FRAME      = TEME
TIME_SYSTEM    = UTC
MEAN_ELEMENT_THEORY = SGP/SGP4

EPOCH          = 2025-12-30T20:00:03.000384
MEAN_MOTION    = 15.50623684
ECCENTRICITY   = .0001207
INCLINATION    = 43.0010
RA_OF_ASC_NODE = 57.9490
ARG_OF_PERICENTER = 274.8514
MEAN_ANOMALY   = 16.5142

EPHEMERIS_TYPE = 0
CLASSIFICATION_TYPE = U
NORAD_CAT_ID   = 66974
ELEMENT_SET_NO = 999
REV_AT_EPOCH   = 473
BSTAR          = -.12743E-2
MEAN_MOTION_DOT = -.74505E-3
MEAN_MOTION_DDOT = 0

CCSDS_OMM_VERS = 2.0
CREATION_DATE  = 
ORIGINATOR     = 

OBJECT_NAME    = STARLINK-35777
OBJECT_ID      = 2025-288S
CENTER_NAME    = EARTH
REF_FRAME      = TEME
TIME_SYSTEM    = UTC
MEAN_ELEMENT_THEORY = SGP/SGP4

EPOCH          = 2025-12-30T20:00:03.000384
MEAN_MOTION    = 15.50618715
ECCENTRICITY   = .0001638
INCLINATION    = 43.0010
RA_OF_ASC_NODE = 57.9383
ARG_OF_PERICENTER = 278.3448
MEAN_ANOMALY   = 16.8594

EPHEMERIS_TYPE = 0
CLASSIFICATION_TYPE = U
NORAD_CAT_ID   = 66975
ELEMENT_SET_NO = 999
REV_AT_EPOCH   = 473
BSTAR          = -.13166E-2
MEAN_MOTION_DOT = -.76933E-3
MEAN_MOTION_DDOT = 0

CCSDS_OMM_VERS = 2.0
CREATION_DATE  = 
ORIGINATOR     = 

OBJECT_NAME    = STARLINK-35772
OBJECT_ID      = 2025-288T
CENTER_NAME    = EARTH
REF_FRAME      = TEME
TIME_SYSTEM    = UTC
MEAN_ELEMENT_THEORY = SGP/SGP4

EPOCH          = 2025-12-30T15:43:34.742208
MEAN_MOTION    = 15.40706149
ECCENTRICITY   = .0001571
INCLINATION    = 43.0007
RA_OF_ASC_NODE = 60.8011
ARG_OF_PERICENTER = 264.4951
MEAN_ANOMALY   = 95.5727

EPHEMERIS_TYPE = 0
CLASSIFICATION_TYPE = U
NORAD_CAT_ID   = 66976
ELEMENT_SET_NO = 999
REV_AT_EPOCH   = 464
BSTAR          = .26362E-2
MEAN_MOTION_DOT = .111464E-2
MEAN_MOTION_DDOT = 0

CCSDS_OMM_VERS = 2.0
CREATION_DATE  = 
ORIGINATOR     = 

OBJECT_NAME    = STARLINK-35770
OBJECT_ID      = 2025-288U
CENTER_NAME    = EARTH
REF_FRAME      = TEME
TIME_SYSTEM    = UTC
MEAN_ELEMENT_THEORY = SGP/SGP4

EPOCH          = 2025-12-30T20:00:03.000384
MEAN_MOTION    = 15.50709042
ECCENTRICITY   = .0001594
INCLINATION    = 43.0011
RA_OF_ASC_NODE = 57.9345
ARG_OF_PERICENTER = 269.8433
MEAN_ANOMALY   = 27.2600

EPHEMERIS_TYPE = 0
CLASSIFICATION_TYPE = U
NORAD_CAT_ID   = 66977
ELEMENT_SET_NO = 999
REV_AT_EPOCH   = 473
BSTAR          = -.37425E-2
MEAN_MOTION_DOT = -.214977E-2
MEAN_MOTION_DDOT = 0

CCSDS_OMM_VERS = 2.0
CREATION_DATE  = 
ORIGINATOR     = 

OBJECT_NAME    = STARLINK-35787
OBJECT_ID      = 2025-288V
CENTER_NAME    = EARTH
REF_FRAME      = TEME
TIME_SYSTEM    = UTC
MEAN_ELEMENT_THEORY = SGP/SGP4

EPOCH          = 2025-12-30T20:00:03.000384
MEAN_MOTION    = 15.46558094
ECCENTRICITY   = .0001007
INCLINATION    = 43.0010
RA_OF_ASC_NODE = 57.9359
ARG_OF_PERICENTER = 282.9439
MEAN_ANOMALY   = 13.4053

EPHEMERIS_TYPE = 0
CLASSIFICATION_TYPE = U
NORAD_CAT_ID   = 66978
ELEMENT_SET_NO = 999
REV_AT_EPOCH   = 473
BSTAR          = -.46125E-1
MEAN_MOTION_DOT = -.2085361E-1
MEAN_MOTION_DDOT = 0

CCSDS_OMM_VERS = 2.0
CREATION_DATE  = 
ORIGINATOR     = 

OBJECT_NAME    = STARLINK-36107
OBJECT_ID      = 2025-288W
CENTER_NAME    = EARTH
REF_FRAME      = TEME
TIME_SYSTEM    = UTC
MEAN_ELEMENT_THEORY = SGP/SGP4

EPOCH          = 2025-12-30T20:00:03.000384
MEAN_MOTION    = 15.50655771
ECCENTRICITY   = .0001546
INCLINATION    = 43.0011
RA_OF_ASC_NODE = 57.9152
ARG_OF_PERICENTER = 276.4301
MEAN_ANOMALY   = 28.3543

EPHEMERIS_TYPE = 0
CLASSIFICATION_TYPE = U
NORAD_CAT_ID   = 66979
ELEMENT_SET_NO = 999
REV_AT_EPOCH   = 473
BSTAR          = -.29348E-2
MEAN_MOTION_DOT = -.169307E-2
MEAN_MOTION_DDOT = 0

CCSDS_OMM_VERS = 2.0
CREATION_DATE  = 
ORIGINATOR     = 

OBJECT_NAME    = STARLINK-36086
OBJECT_ID      = 2025-288X
CENTER_NAME    = EARTH
REF_FRAME      = TEME
TIME_SYSTEM    = UTC
MEAN_ELEMENT_THEORY = SGP/SGP4

EPOCH          = 2025-12-30T20:00:03.000384
MEAN_MOTION    = 15.50663562
ECCENTRICITY   = .0001505
INCLINATION    = 43.0011
RA_OF_ASC_NODE = 57.9100
ARG_OF_PERICENTER = 274.6836
MEAN_ANOMALY   = 32.0141

EPHEMERIS_TYPE = 0
CLASSIFICATION_TYPE = U
NORAD_CAT_ID   = 66980
ELEMENT_SET_NO = 999
REV_AT_EPOCH   = 473
BSTAR          = -.31111E-2
MEAN_MOTION_DOT = -.17928E-2
MEAN_MOTION_DDOT = 0

CCSDS_OMM_VERS = 2.0
CREATION_DATE  = 
ORIGINATOR     = 

OBJECT_NAME    = STARLINK-36142
OBJECT_ID      = 2025-288Y
CENTER_NAME    = EARTH
REF_FRAME      = TEME
TIME_SYSTEM    = UTC
MEAN_ELEMENT_THEORY = SGP/SGP4

EPOCH          = 2025-12-30T20:00:03.000384
MEAN_MOTION    = 15.50655553
ECCENTRICITY   = .0001607
INCLINATION    = 43.0011
RA_OF_ASC_NODE = 57.9051
ARG_OF_PERICENTER = 274.6622
MEAN_ANOMALY   = 33.9526

EPHEMERIS_TYPE = 0
CLASSIFICATION_TYPE = U
NORAD_CAT_ID   = 66981
ELEMENT_SET_NO = 999
REV_AT_EPOCH   = 473
BSTAR          = -.28888E-2
MEAN_MOTION_DOT = -.166711E-2
MEAN_MOTION_DDOT = 0

CCSDS_OMM_VERS = 2.0
CREATION_DATE  = 
ORIGINATOR     = 

OBJECT_NAME    = STARLINK-36113
OBJECT_ID      = 2025-288Z
CENTER_NAME    = EARTH
REF_FRAME      = TEME
TIME_SYSTEM    = UTC
MEAN_ELEMENT_THEORY = SGP/SGP4

EPOCH          = 2025-12-30T15:34:32.291040
MEAN_MOTION    = 15.50616509
ECCENTRICITY   = .0001106
INCLINATION    = 43.0007
RA_OF_ASC_NODE = 58.9783
ARG_OF_PERICENTER = 256.4562
MEAN_ANOMALY   = 103.6175

EPHEMERIS_TYPE = 0
CLASSIFICATION_TYPE = U
NORAD_CAT_ID   = 66982
ELEMENT_SET_NO = 999
REV_AT_EPOCH   = 466
BSTAR          = .2244E-2
MEAN_MOTION_DOT = .133756E-2
MEAN_MOTION_DDOT = 0

